{"type": "FeatureCollection", "features": [{"type": "Feature", "properties": {"norad_id": 24946, "name": "IRIDIUM 33", "group": "iridium-33-debris", "lat": -85.90908046297434, "lon": 7.531944164566966, "alt_km": 779.9872652432759, "timestamp": "2025-12-09T11:33:55.185467+00:00", "meta": {"OBJECT_NAME": "IRIDIUM 33", "OBJECT_ID": "1997-051C", "EPOCH": "2025-12-08T19:14:25.821600", "MEAN_MOTION": 14.35033415, "ECCENTRICITY": 0.00065999, "INCLINATION": 86.387, "RA_OF_ASC_NODE": 69.8745, "ARG_OF_PERICENTER": 215.0125, "MEAN_ANOMALY": 145.0639, "EPHEMERIS_TYPE": 0, "CLASSIFICATION_TYPE": "U", "NORAD_CAT_ID": 24946, "ELEMENT_SET_NO": 999, "REV_AT_EPOCH": 47778, "BSTAR": 0.00023498518, "MEAN_MOTION_DOT": 6.89e-06, "MEAN_MOTION_DDOT": 0}, "tle": {"line1": "1 24946U 97051C   25342.80168775  .00000689  00000+0  23499-3 0  9997", "line2": "2 24946  86.3870  69.8745 0006599 215.0125 145.0639 14.35033415477783"}}, "geometry": {"type": "Point", "coordinates": [7.531944164566966, -85.90908046297434]}}, {"type": "Feature", "properties": {"norad_id": 33773, "name": "IRIDIUM 33 DEB", "group": "iridium-33-debris", "lat": 47.23099950005815, "lon": -121.93088891796022, "alt_km": 735.7652726810475, "timestamp": "2025-12-09T11:33:55.185512+00:00", "meta": {"OBJECT_NAME": "IRIDIUM 33 DEB", "OBJECT_ID": "1997-051L", "EPOCH": "2025-12-09T04:17:49.896672", "MEAN_MOTION": 14.43243898, "ECCENTRICITY": 0.0012139, "INCLINATION": 86.4015, "RA_OF_ASC_NODE": 62.0983, "ARG_OF_PERICENTER": 156.9799, "MEAN_ANOMALY": 203.1949, "EPHEMERIS_TYPE": 0, "CLASSIFICATION_TYPE": "U", "NORAD_CAT_ID": 33773, "ELEMENT_SET_NO": 999, "REV_AT_EPOCH": 88296, "BSTAR": 0.00046736, "MEAN_MOTION_DOT": 1.593e-05, "MEAN_MOTION_DDOT": 0}, "tle": {"line1": "1 33773U 97051L   25343.17904973  .00001593  00000+0  46736-3 0  9998", "line2": "2 33773  86.4015  62.0983 0012139 156.9799 203.1949 14.43243898882966"}}, "geometry": {"type": "Point", "coordinates": [-121.93088891796022, 47.23099950005815]}}, {"type": "Feature", "properties": {"norad_id": 33775, "name": "IRIDIUM 33 DEB", "group": "iridium-33-debris", "lat": -57.11536302659718, "lon": -123.41154072093892, "alt_km": 757.8780642404445, "timestamp": "2025-12-09T11:33:55.185528+00:00", "meta": {"OBJECT_NAME": "IRIDIUM 33 DEB", "OBJECT_ID": "1997-051N", "EPOCH": "2025-12-09T03:56:22.236864", "MEAN_MOTION": 14.41455547, "ECCENTRICITY": 0.0013884, "INCLINATION": 86.364, "RA_OF_ASC_NODE": 51.08, "ARG_OF_PERICENTER": 165.7314, "MEAN_ANOMALY": 223.5474, "EPHEMERIS_TYPE": 0, "CLASSIFICATION_TYPE": "U", "NORAD_CAT_ID": 33775, "ELEMENT_SET_NO": 999, "REV_AT_EPOCH": 88089, "BSTAR": 0.0004954, "MEAN_MOTION_DOT": 1.628e-05, "MEAN_MOTION_DDOT": 0}, "tle": {"line1": "1 33775U 97051N   25343.16414626  .00001628  00000+0  49540-3 0  9995", "line2": "2 33775  86.3640  51.0800 0013884 165.7314 223.5474 14.41455547880899"}}, "geometry": {"type": "Point", "coordinates": [-123.41154072093892, -57.11536302659718]}}, {"type": "Feature", "properties": {"norad_id": 33776, "name": "IRIDIUM 33 DEB", "group": "iridium-33-debris", "lat": 35.326373620037664, "lon": -100.41072218093188, "alt_km": 756.6552434555206, "timestamp": "2025-12-09T11:33:55.185541+00:00", "meta": {"OBJECT_NAME": "IRIDIUM 33 DEB", "OBJECT_ID": "1997-051P", "EPOCH": "2025-12-08T20:25:17.631264", "MEAN_MOTION": 14.38225708, "ECCENTRICITY": 0.00138791, "INCLINATION": 86.4038, "RA_OF_ASC_NODE": 82.4088, "ARG_OF_PERICENTER": 203.6045, "MEAN_ANOMALY": 276.0774, "EPHEMERIS_TYPE": 0, "CLASSIFICATION_TYPE": "U", "NORAD_CAT_ID": 33776, "ELEMENT_SET_NO": 999, "REV_AT_EPOCH": 88026, "BSTAR": 0.00064814674, "MEAN_MOTION_DOT": 1.989e-05, "MEAN_MOTION_DDOT": 0}, "tle": {"line1": "1 33776U 97051P   25342.85089851  .00001989  00000+0  64815-3 0  9991", "line2": "2 33776  86.4038  82.4088 0013879 203.6045 276.0774 14.38225708880262"}}, "geometry": {"type": "Point", "coordinates": [-100.41072218093188, 35.326373620037664]}}, {"type": "Feature", "properties": {"norad_id": 33777, "name": "IRIDIUM 33 DEB", "group": "iridium-33-debris", "lat": 86.22919850612155, "lon": 110.5627461633952, "alt_km": 703.6146182888742, "timestamp": "2025-12-09T11:33:55.185554+00:00", "meta": {"OBJECT_NAME": "IRIDIUM 33 DEB", "OBJECT_ID": "1997-051Q", "EPOCH": "2025-12-09T04:33:29.869056", "MEAN_MOTION": 14.55571675, "ECCENTRICITY": 0.0005077, "INCLINATION": 86.3783, "RA_OF_ASC_NODE": 36.7474, "ARG_OF_PERICENTER": 265.7419, "MEAN_ANOMALY": 94.3208, "EPHEMERIS_TYPE": 0, "CLASSIFICATION_TYPE": "U", "NORAD_CAT_ID": 33777, "ELEMENT_SET_NO": 999, "REV_AT_EPOCH": 88482, "BSTAR": 0.0010986, "MEAN_MOTION_DOT": 4.809e-05, "MEAN_MOTION_DDOT": 0}, "tle": {"line1": "1 33777U 97051Q   25343.18992904  .00004809  00000+0  10986-2 0  9994", "line2": "2 33777  86.3783  36.7474 0005077 265.7419  94.3208 14.55571675884820"}}, "geometry": {"type": "Point", "coordinates": [110.5627461633952, 86.22919850612155]}}, {"type": "Feature", "properties": {"norad_id": 33850, "name": "IRIDIUM 33 DEB", "group": "iridium-33-debris", "lat": -30.15991003930623, "lon": -146.2890231716984, "alt_km": 750.9342900051988, "timestamp": "2025-12-09T11:33:55.185567+00:00", "meta": {"OBJECT_NAME": "IRIDIUM 33 DEB", "OBJECT_ID": "1997-051T", "EPOCH": "2025-12-09T04:12:04.721760", "MEAN_MOTION": 14.42134483, "ECCENTRICITY": 0.0011843, "INCLINATION": 86.342, "RA_OF_ASC_NODE": 31.7125, "ARG_OF_PERICENTER": 172.0555, "MEAN_ANOMALY": 246.0053, "EPHEMERIS_TYPE": 0, "CLASSIFICATION_TYPE": "U", "NORAD_CAT_ID": 33850, "ELEMENT_SET_NO": 999, "REV_AT_EPOCH": 88101, "BSTAR": 0.00048336, "MEAN_MOTION_DOT": 1.61e-05, "MEAN_MOTION_DDOT": 0}, "tle": {"line1": "1 33850U 97051T   25343.17505465  .00001610  00000+0  48336-3 0  9995", "line2": "2 33850  86.3420  31.7125 0011843 172.0555 246.0053 14.42134483881017"}}, "geometry": {"type": "Point", "coordinates": [-146.2890231716984, -30.15991003930623]}}, {"type": "Feature", "properties": {"norad_id": 33853, "name": "IRIDIUM 33 DEB", "group": "iridium-33-debris", "lat": 19.32902444116331, "lon": -7.353715640318587, "alt_km": 999.4757112898724, "timestamp": "2025-12-09T11:33:55.185579+00:00", "meta": {"OBJECT_NAME": "IRIDIUM 33 DEB", "OBJECT_ID": "1997-051W", "EPOCH": "2025-12-09T01:26:49.532928", "MEAN_MOTION": 13.990264, "ECCENTRICITY": 0.0206959, "INCLINATION": 85.9998, "RA_OF_ASC_NODE": 351.4246, "ARG_OF_PERICENTER": 247.2093, "MEAN_ANOMALY": 168.4771, "EPHEMERIS_TYPE": 0, "CLASSIFICATION_TYPE": "U", "NORAD_CAT_ID": 33853, "ELEMENT_SET_NO": 999, "REV_AT_EPOCH": 85294, "BSTAR": 0.0024496, "MEAN_MOTION_DOT": 4.27e-05, "MEAN_MOTION_DDOT": 0}, "tle": {"line1": "1 33853U 97051W   25343.06029552  .00004270  00000+0  24496-2 0  9999", "line2": "2 33853  85.9998 351.4246 0206959 247.2093 168.4771 13.99026400852941"}}, "geometry": {"type": "Point", "coordinates": [-7.353715640318587, 19.32902444116331]}}, {"type": "Feature", "properties": {"norad_id": 33860, "name": "IRIDIUM 33 DEB", "group": "iridium-33-debris", "lat": -28.887263774621577, "lon": -149.32031732799507, "alt_km": 680.9531381151937, "timestamp": "2025-12-09T11:33:55.185590+00:00", "meta": {"OBJECT_NAME": "IRIDIUM 33 DEB", "OBJECT_ID": "1997-051AD", "EPOCH": "2025-12-09T02:41:58.809408", "MEAN_MOTION": 14.67293225, "ECCENTRICITY": 0.0007935, "INCLINATION": 86.3836, "RA_OF_ASC_NODE": 28.8434, "ARG_OF_PERICENTER": 10.3707, "MEAN_ANOMALY": 48.4876, "EPHEMERIS_TYPE": 0, "CLASSIFICATION_TYPE": "U", "NORAD_CAT_ID": 33860, "ELEMENT_SET_NO": 999, "REV_AT_EPOCH": 88669, "BSTAR": 0.0014212, "MEAN_MOTION_DOT": 8.042e-05, "MEAN_MOTION_DDOT": 0}, "tle": {"line1": "1 33860U 97051AD  25343.11248622  .00008042  00000+0  14212-2 0  9990", "line2": "2 33860  86.3836  28.8434 0007935  10.3707  48.4876 14.67293225886692"}}, "geometry": {"type": "Point", "coordinates": [-149.32031732799507, -28.887263774621577]}}, {"type": "Feature", "properties": {"norad_id": 33862, "name": "IRIDIUM 33 DEB", "group": "iridium-33-debris", "lat": -39.980973527168985, "lon": -138.01459143193523, "alt_km": 698.5237014113718, "timestamp": "2025-12-09T11:33:55.185602+00:00", "meta": {"OBJECT_NAME": "IRIDIUM 33 DEB", "OBJECT_ID": "1997-051AF", "EPOCH": "2025-12-09T04:16:30.984096", "MEAN_MOTION": 14.69381362, "ECCENTRICITY": 0.0053708, "INCLINATION": 86.4088, "RA_OF_ASC_NODE": 39.1006, "ARG_OF_PERICENTER": 81.053, "MEAN_ANOMALY": 332.7915, "EPHEMERIS_TYPE": 0, "CLASSIFICATION_TYPE": "U", "NORAD_CAT_ID": 33862, "ELEMENT_SET_NO": 999, "REV_AT_EPOCH": 88771, "BSTAR": 0.0016086, "MEAN_MOTION_DOT": 9.751e-05, "MEAN_MOTION_DDOT": 0}, "tle": {"line1": "1 33862U 97051AF  25343.17813639  .00009751  00000+0  16086-2 0  9993", "line2": "2 33862  86.4088  39.1006 0053708  81.0530 332.7915 14.69381362887711"}}, "geometry": {"type": "Point", "coordinates": [-138.01459143193523, -39.980973527168985]}}, {"type": "Feature", "properties": {"norad_id": 33866, "name": "IRIDIUM 33 DEB", "group": "iridium-33-debris", "lat": 80.03622519165943, "lon": 116.02607425347153, "alt_km": 800.8130455470928, "timestamp": "2025-12-09T11:33:55.185613+00:00", "meta": {"OBJECT_NAME": "IRIDIUM 33 DEB", "OBJECT_ID": "1997-051AK", "EPOCH": "2025-12-08T20:36:39.868992", "MEAN_MOTION": 14.2525579, "ECCENTRICITY": 0.01141524, "INCLINATION": 86.3002, "RA_OF_ASC_NODE": 94.6775, "ARG_OF_PERICENTER": 173.7602, "MEAN_ANOMALY": 313.2599, "EPHEMERIS_TYPE": 0, "CLASSIFICATION_TYPE": "U", "NORAD_CAT_ID": 33866, "ELEMENT_SET_NO": 999, "REV_AT_EPOCH": 86755, "BSTAR": 0.0013239084, "MEAN_MOTION_DOT": 3.351e-05, "MEAN_MOTION_DDOT": 0}, "tle": {"line1": "1 33866U 97051AK  25342.85879478  .00003351  00000+0  13239-2 0  9991", "line2": "2 33866  86.3002  94.6775 0114152 173.7602 313.2599 14.25255790867558"}}, "geometry": {"type": "Point", "coordinates": [116.02607425347153, 80.03622519165943]}}]}